ONEWEB-0706             
1 61611U 24188T   25090.80480169  .00000109  00000+0  22782-3 0  9993
2 61611  87.9294 124.4528 0002411 124.0853 236.0511 13.23003199 25436
ONEWEB-0707             
1 61612U 24188U   25090.65078441 -.00000618  00000+0 -18059-2 0  9991
2 61612  87.8808 124.4698 0001221 102.0009 258.1255 13.10368206 25363
ONEWEB-0708             
1 61613U 24188V   25090.82170447 -.00000015  00000+0 -79205-4 0  9993
2 61613  87.8868 124.4019 0001461 117.8611 242.2665 13.10367168 25361
